GLOBALSTAR M068         
1 32266U 07048D   25341.71365354 -.00000066  00000+0  20960-3 0  9999
2 32266  51.9865 133.2834 0001886 130.5370 242.8427 12.62834886839480
GLOBALSTAR M079         
1 37188U 10054A   25341.69347734 -.00000091  00000+0  71386-4 0  9994
2 37188  52.0056 331.6058 0000342   8.8535 163.3325 12.62268970698369
GLOBALSTAR M074         
1 37189U 10054B   25342.00027310 -.00000096  00000+0  43443-4 0  9994
2 37189  52.0033 329.9671 0000481  54.9824 311.7991 12.62263903699015
GLOBALSTAR M076         
1 37190U 10054C   25341.95022809 -.00000091  00000+0  71798-4 0  9996
2 37190  52.0046 330.3077 0000520  34.2666 343.7715 12.62267835698720
GLOBALSTAR M077         
1 37191U 10054D   25341.92071611 -.00000070  00000+0  13968-3 0  9990
2 37191  52.0110 305.1518 0000684   8.4476  13.1647 11.68138635698795
GLOBALSTAR M075         
1 37192U 10054E   25341.83820861 -.00000079  00000+0  13668-3 0  9996
2 37192  51.9967  12.8067 0000337 108.8291  61.4922 12.62270290697778
GLOBALSTAR M073         
1 37193U 10054F   25341.88799646 -.00000075  00000+0  15908-3 0  9993
2 37193  52.0067 286.6105 0000654  34.6150 359.9586 12.62264944699770
GLOBALSTAR M083         
1 37739U 11033A   25341.97699854 -.00000067  00000+0  20661-3 0  9990
2 37739  51.9851 234.8300 0000797  56.8377 324.3392 12.62265377668804
GLOBALSTAR M088         
1 37740U 11033B   25341.90135153 -.00000109  00000+0 -29090-4 0  9996
2 37740  52.0191 141.0228 0001093 104.1564  52.2839 12.62271016664332
GLOBALSTAR M091         
1 37741U 11033C   25341.64552649 -.00000108  00000+0 -21758-4 0  9993
2 37741  51.9992 105.0502 0000814 122.9816 249.7473 12.62262347665091
GLOBALSTAR M085         
1 37742U 11033D   25341.98398756 -.00000083  00000+0  11429-3 0  9992
2 37742  52.0146  55.1445 0000462 148.6515  23.5285 12.62267134665645
GLOBALSTAR M081         
1 37743U 11033E   25341.93093990 -.00000085  00000+0  10410-3 0  9991
2 37743  51.9973  57.9584 0000409 120.4384  51.0896 12.62270700665781
GLOBALSTAR M089         
1 37744U 11033F   25341.81377642 -.00000076  00000+0  15220-3 0  9992
2 37744  51.9955  12.5112 0000553  80.9075  98.6703 12.62262000666614
GLOBALSTAR M084         
1 38040U 11080A   25341.88397947 -.00000066  00000+0  21215-3 0  9991
2 38040  52.0006 239.6793 0001151  62.6457  14.9465 12.62266394644607
GLOBALSTAR M080         
1 38041U 11080B   25341.99954647 -.00000062  00000+0  23369-3 0  9998
2 38041  52.0053 240.9791 0000639  98.1197 274.8992 12.62264531644746
GLOBALSTAR M082         
1 38042U 11080C   25341.79218108 -.00000077  00000+0  15039-3 0  9993
2 38042  52.0054 197.0913 0000839  97.1170 342.7453 12.62266037645424
GLOBALSTAR M092         
1 38043U 11080D   25342.00245598 -.00000075  00000+0  15986-3 0  9991
2 38043  52.0095 286.8370 0000615  57.9351  17.4648 12.62268081643905
GLOBALSTAR M090         
1 38044U 11080E   25341.88338339 -.00000088  00000+0  85972-4 0  9990
2 38044  52.0102 190.7083 0000878  78.8457 294.5958 12.62265248645556
GLOBALSTAR M086         
1 38045U 11080F   25341.90776808 -.00000080  00000+0  13019-3 0  9995
2 38045  51.9875 190.8752 0001295  28.9174 344.7311 12.62280880645507
GLOBALSTAR M097         
1 39072U 13005A   25341.77446139 -.00000117  00000+0 -75902-4 0  9993
2 39072  52.0039 106.0112 0000679 106.5685 253.5256 12.62267810592735
GLOBALSTAR M093         
1 39073U 13005B   25341.59001927 -.00000104  00000+0  10725-5 0  9994
2 39073  52.0101  99.8476 0000456 117.0825 243.0089 12.62270976592661
GLOBALSTAR M094         
1 39074U 13005C   25341.35229375 -.00000083  00000+0  11550-3 0  9999
2 39074  51.9978  14.8799 0000078 127.3334 232.7540 12.62265175594244
GLOBALSTAR M096         
1 39075U 13005D   25341.91965457 -.00000086  00000+0  97377-4 0  9995
2 39075  52.0087  61.8008 0000435 139.3376 220.7524 12.62269188593234
GLOBALSTAR M078         
1 39076U 13005E   25341.73532396 -.00000118  00000+0 -80807-4 0  9995
2 39076  51.9845 146.6392 0001085 150.5878 209.5049 12.62272399591836
GLOBALSTAR M095         
1 39077U 13005F   25341.91989688 -.00000115  00000+0 -60111-4 0  9999
2 39077  52.0054 143.4090 0000715 121.7764 238.3173 12.62267258591717
GLOBALSTAR M087         
1 52888U 22064A   25341.77453254 -.00000071  00000+0  18432-3 0  9996
2 52888  52.0007 285.1990 0000423  39.2604 320.8293 12.62261018166968
